CUTE-1 (CO-55)          
1 27844U 03031E   18091.54975458  .00000043  00000-0  39139-4 0  9994
2 27844  98.6891 101.3295 0008883 228.8090 131.2322 14.22103009765302
CUBESAT XI-IV (CO-57)   
1 27848U 03031J   18091.69891451  .00000031  00000-0  34083-4 0  9994
2 27848  98.6978 101.8483 0008665 239.5473 120.4849 14.21708341765198
CUBESAT XI 5            
1 28895U 05043F   18091.36172260  .00000137  00000-0  35056-4 0  9994
2 28895  97.8972 245.9772 0015731 315.5449  44.4490 14.63525107662407
CUTE-1.7+APD II (CO-65) 
1 32785U 08021C   18091.46026025  .00000169  00000-0  23987-4 0  9999
2 32785  97.5512 107.2878 0011658 295.9544  64.0472 14.88086501537692
AAUSAT-II               
1 32788U 08021F   18091.61766588  .00000694  00000-0  69688-4 0  9995
2 32788  97.5292 121.2869 0010520 240.7515 119.2655 14.94269720538644
DELFI-C3 (DO-64)        
1 32789U 08021G   18091.36950725  .00001696  00000-0  12079-3 0  9990
2 32789  97.5207 148.1005 0012368 193.1615 166.9291 15.05867881540121
SEEDS II (CO-66)        
1 32791U 08021J   18091.53941154  .00000379  00000-0  44166-4 0  9998
2 32791  97.5418 112.5440 0011832 274.1675  85.8191 14.90502580538093
SWISSCUBE               
1 35932U 09051B   18091.88872532  .00000130  00000-0  40461-4 0  9992
2 35932  98.5332 241.2641 0008877  86.6542 273.5670 14.56137281452330
BEESAT                  
1 35933U 09051C   18091.44046811  .00000116  00000-0  37162-4 0  9996
2 35933  98.5372 242.3040 0007090  98.9859 261.2141 14.56243726452376
ITUPSAT 1               
1 35935U 09051E   18091.45194285  .00000073  00000-0  27936-4 0  9998
2 35935  98.5484 242.5696 0009383  94.5675 265.6594 14.55423183452169
M-CUBED & EXP-1 PRIME   
1 37855U 11061F   18091.58629240  .00001146  00000-0  66752-4 0  9994
2 37855 101.7248 114.9222 0176934 308.9471  49.6084 15.04230578349660
STRAND-1                
1 39090U 13009E   18091.55147476  .00000018  00000-0  21763-4 0  9994
2 39090  98.5295 298.9006 0009559 158.2169 201.9425 14.35017353266813
AIST-2 (RS-43)          
1 39133U 13015D   18091.87408453  .00000092  00000-0  19118-4 0  9992
2 39133  64.8723  93.0566 0029338 234.3316 125.5072 15.04515561271732
SOMP                    
1 39134U 13015E   18091.17391270  .00001073  00000-0  60504-4 0  9999
2 39134  64.8650  15.9933 0020886 219.6635 140.2965 15.18950708273202
BEESAT 3                
1 39135U 13015F   18091.86180363  .00000902  00000-0  55866-4 0  9990
2 39135  64.8708  26.1420 0026308 246.0779 113.7591 15.16509905273072
BEESAT-2                
1 39136U 13015G   18091.27712675  .00000814  00000-0  52099-4 0  9990
2 39136  64.8709  30.6048 0026831 245.4159 114.4170 15.15982963272546
NEE-01 PEGASUS          
1 39151U 13018B   18091.76294091  .00000157  00000-0  27827-4 0  9992
2 39151  97.9731 186.3807 0016894 191.5445 168.5381 14.79872562266217
ESTCUBE 1               
1 39161U 13021C   18091.76165942  .00000142  00000-0  30481-4 0  9993
2 39161  98.0080 178.7812 0008240 308.3433  51.7031 14.72038898263209
POPACS 1                
1 39268U 13055D   18091.38078596  .00003608  00000-0  10018-3 0  9997
2 39268  81.0020  66.8101 0641651  92.6359 274.8395 14.33537995233443
POPACS 2                
1 39269U 13055E   18091.42964165  .00001893  00000-0  53929-4 0  9992
2 39269  81.0126  87.1427 0694125 145.3836 219.4640 14.21691365231016
POPACS 3                
1 39270U 13055F   18091.43201401  .00001929  00000-0  60038-4 0  9991
2 39270  81.0141  98.4567 0720500 178.9923 181.2926 14.14383083231505
ZACUBE-1 (TSHEPISOSAT)  
1 39417U 13066B   18091.55860898  .00000211  00000-0  32997-4 0  9996
2 39417  97.5954 124.2566 0060225  47.3375 313.2890 14.80900450235451
WNISAT-1                
1 39423U 13066H   18091.90235940  .00000030  00000-0  16152-4 0  9990
2 39423  97.7181  61.9154 0174033 255.7634 102.4188 14.52937277231155
GOMX 1                  
1 39430U 13066Q   18091.90738387  .00000145  00000-0  35470-4 0  9992
2 39430  97.6914  74.3072 0150777 210.8875 148.3392 14.59045886232038
EAGLE 2                 
1 39436U 13066W   18091.59788596  .00137175  00000-0  11638-2 0  9992
2 39436  97.7132 222.1007 0001469 219.0649 141.0506 15.69229283240146
CUBEBUG-2 (LO-74)       
1 39440U 13066AA  18091.85700405  .00000214  00000-0  36620-4 0  9992
2 39440  97.6064 111.6097 0082104  83.6407 277.4146 14.75634954234662
NEE-02 KRYSAOR          
1 39441U 13066AB  18091.55746591  .00000126  00000-0  24923-4 0  9991
2 39441  97.6062 109.6242 0083548  89.2512 271.8270 14.74750235234488
FUNCUBE-1 (AO-73)       
1 39444U 13066AE  18091.86468208  .00000266  00000-0  39261-4 0  9990
2 39444  97.5964 125.9752 0059256  42.1179 318.4566 14.81669849234354
UWE-3                   
1 39446U 13066AG  18091.60427032  .00000213  00000-0  34873-4 0  9990
2 39446  97.5996 117.4632 0071672  66.1600 294.7103 14.78168690233216
BRITE-TORONTO           
1 40020U 14033L   18091.86927627  .00000049  00000-0  16680-4 0  9991
2 40020  97.7970 314.0213 0088690 127.5118 233.4190 14.66479082202404
DUCHIFAT-1              
1 40021U 14033M   18091.31439674  .00000483  00000-0  55633-4 0  9995
2 40021  97.9173   9.8945 0014462  73.3529 286.9275 14.90240741205509
NANOSATC-BR1            
1 40024U 14033Q   18091.31764859  .00000380  00000-0  45829-4 0  9996
2 40024  97.9113   8.2906 0013722  75.3294 284.9443 14.89512991204911
QB50P1                  
1 40025U 14033R   18091.72496638  .00000267  00000-0  34579-4 0  9993
2 40025  97.9076   7.2734 0013965  77.8557 282.4223 14.88666622205411
QB50P2                  
1 40032U 14033Y   18091.72459636  .00000244  00000-0  32535-4 0  9993
2 40032  97.9034   6.0686 0013346  73.8628 286.4057 14.88214572205359
PERSEUS-M2              
1 40037U 14033AD  18091.53921651  .00000109  00000-0  18565-4 0  9995
2 40037  97.9030   3.6569 0015882  81.7342 278.5674 14.86336812204649
PERSEUS-M1              
1 40039U 14033AF  18091.34269697  .00000106  00000-0  18458-4 0  9999
2 40039  97.9029   2.8695 0015717  79.1956 281.1027 14.85958713204550
POLYITAN-1              
1 40042U 14033AJ  18091.56341798  .00000340  00000-0  42732-4 0  9992
2 40042  97.9151   7.2064 0016177  67.6807 292.6122 14.88343740204809
TIGRISAT                
1 40043U 14033AK  18091.60478982  .00000151  00000-0  29712-4 0  9997
2 40043  97.8201 331.6711 0061561  85.7295 275.0946 14.74113069203023
AEROCUBE 6A             
1 40045U 14033AM  18091.65849040  .00000332  00000-0  55289-4 0  9990
2 40045  97.8358 333.7507 0059613  80.0179 280.7751 14.75093523203242
AEROCUBE 6B             
1 40046U 14033AN  18091.86274363  .00000319  00000-0  53481-4 0  9991
2 40046  97.8332 333.8301 0058744  78.9497 281.8311 14.75083844203419
UKUBE-1                 
1 40074U 14037F   18091.74649570  .00000309  00000-0  44482-4 0  9999
2 40074  98.3743 225.1992 0004324 183.8746 176.2444 14.83750111201968
BRITE-PL 2              
1 40119U 14049B   18091.49114416  .00000136  00000-0  22785-4 0  9990
2 40119  97.9181 180.6525 0016534 224.9561 135.0315 14.84266233195830
FIREBIRD 4              
1 40378U 15003C   18091.73315055  .00001757  00000-0  75490-4 0  9998
2 40378  99.0962 338.3629 0133180 124.5240 236.8646 15.16906948174733
GRIFEX                  
1 40379U 15003D   18091.88808299  .00001263  00000-0  59201-4 0  9996
2 40379  99.0996 335.0595 0139787 135.4711 225.7850 15.14099510174550
EXOCUBE                 
1 40380U 15003E   18091.58708451  .00000902  00000-0  45426-4 0  9997
2 40380  99.1046 332.7730 0144016 142.9156 218.2127 15.12342740174368
TIANWANG 1C (TW-1C)     
1 40926U 15051B   18091.89108972  .00006435  00000-0  12573-3 0  9995
2 40926  97.1924 134.6187 0009767 184.3681 301.4189 15.47761791141500
TIANWANG 1A (TW-1A)     
1 40928U 15051D   18091.78316190  .00002591  00000-0  70777-4 0  9998
2 40928  97.1940 127.2672 0010270 231.9218 217.4203 15.38260232141038
EXACTVIEW 9             
1 40936U 15052G   18091.14262544  .00000822  00000-0  26080-4 0  9994
2 40936   6.0052 343.3831 0010644 346.4182  13.5734 14.76363256135561
ATHENOXAT 1             
1 41168U 15077C   18091.86615685  .00001921  00000-0  68885-4 0  9996
2 41168  14.9867 218.8338 0012255  61.1230  23.0787 15.12585807126804
GALASSIA                
1 41170U 15077E   18091.55378672  .00001825  00000-0  62609-4 0  9998
2 41170  14.9879 216.0178 0013269  76.8143 283.3658 15.12985469126800
VELOX 2                 
1 41171U 15077F   18091.84462880  .00001452  00000-0  46433-4 0  9999
2 41171  14.9907 233.5269 0009047  23.5918 336.4816 15.10531814126676
HORYU-IV                
1 41340U 16012D   18091.31089458  .00000509  00000-0  32286-4 0  9998
2 41340  31.0053  76.1129 0014063  51.1203 309.0686 15.00928136116339
E-ST@R-II               
1 41459U 16025D   18091.68336819  .00001648  00000-0  89646-4 0  9996
2 41459  98.1465 150.2940 0172979  45.3850 316.1329 15.04180474105925
AAUSAT 4                
1 41460U 16025E   18091.73235211  .00001967  00000-0  10534-3 0  9991
2 41460  98.1394 150.7310 0164078  41.7665 319.5926 15.05521633105982
DIWATA-1                
1 41463U 98067HT  18091.78600760  .00009867  00000-0  90034-4 0  9991
2 41463  51.6412   2.2852 0001915 142.4842 323.4590 15.68601734110008
BEESAT-4                
1 41619U 16040W   18091.21353120  .00001338  00000-0  61751-4 0  9997
2 41619  97.4232 155.4035 0012959 135.1051 225.1236 15.21882932 86382
CANX-7                  
1 41788U 16059F   18091.82523892  .00004103  00000-0  71439-3 0  9992
2 41788  98.2018 158.0166 0025050 342.8498  17.1936 14.68422919 80893
ALSAT 1N                
1 41789U 16059G   18091.69071897  .00000079  00000-0  24223-4 0  9999
2 41789  98.1268 155.5227 0027627 331.0699  28.8979 14.64138265 80828
RAVAN                   
1 41849U 16067B   18091.18270664  .00001238  00000-0  11103-3 0  9992
2 41849  97.9259 178.8015 0009716  68.4294 291.7962 14.97637285 75601
